{
    "links": {
        "self": "http://www.neowsapp.com/rest/v1/neo/3740040?api_key=iIulBulltgU6a56xZRHN4H3l9WmuAYTsLGpBGhQ2"
    },
    "id": "3740040",
    "neo_reference_id": "3740040",
    "name": "(2016 AR165)",
    "designation": "2016 AR165",
    "nasa_jpl_url": "http://ssd.jpl.nasa.gov/sbdb.cgi?sstr=3740040",
    "absolute_magnitude_h": 22.8,
    "estimated_diameter": {
        "kilometers": {
            "estimated_diameter_min": 0.0732073989,
            "estimated_diameter_max": 0.1636967205
        },
        "meters": {
            "estimated_diameter_min": 73.2073989347,
            "estimated_diameter_max": 163.696720474
        },
        "miles": {
            "estimated_diameter_min": 0.0454889547,
            "estimated_diameter_max": 0.1017163949
        },
        "feet": {
            "estimated_diameter_min": 240.181762721,
            "estimated_diameter_max": 537.0627483999
        }
    },
    "is_potentially_hazardous_asteroid": false,
    "close_approach_data": [
        {
            "close_approach_date": "1901-10-14",
            "close_approach_date_full": "1901-Oct-14 03:09",
            "epoch_date_close_approach": -2152731060000,
            "relative_velocity": {
                "kilometers_per_second": "10.1014628183",
                "kilometers_per_hour": "36365.2661460366",
                "miles_per_hour": "22595.9621783526"
            },
            "miss_distance": {
                "astronomical": "1.2524209751",
                "lunar": "487.1917593139",
                "kilometers": "187359510.218283037",
                "miles": "116419801.1917264306"
            },
            "orbiting_body": "Juptr"
        },
        {
            "close_approach_date": "2008-09-22",
            "close_approach_date_full": "2008-Sep-22 17:09",
            "epoch_date_close_approach": 1222103340000,
            "relative_velocity": {
                "kilometers_per_second": "8.4849843761",
                "kilometers_per_hour": "30545.9437538511",
                "miles_per_hour": "18980.0615508304"
            },
            "miss_distance": {
                "astronomical": "1.078040545",
                "lunar": "419.357772005",
                "kilometers": "161272569.30563915",
                "miles": "100210127.76115427"
            },
            "orbiting_body": "Juptr"
        },
        {
            "close_approach_date": "2016-01-17",
            "close_approach_date_full": "2016-Jan-17 04:48",
            "epoch_date_close_approach": 1453006080000,
            "relative_velocity": {
                "kilometers_per_second": "20.9753208148",
                "kilometers_per_hour": "75511.1549334236",
                "miles_per_hour": "46919.6951307154"
            },
            "miss_distance": {
                "astronomical": "0.1103410147",
                "lunar": "42.9226547183",
                "kilometers": "16506780.772758689",
                "miles": "10256837.9562963482"
            },
            "orbiting_body": "Earth"
        },
        {
            "close_approach_date": "2173-02-06",
            "close_approach_date_full": "2173-Feb-06 04:30",
            "epoch_date_close_approach": 6409254600000,
            "relative_velocity": {
                "kilometers_per_second": "26.2068987733",
                "kilometers_per_hour": "94344.8355837371",
                "miles_per_hour": "58622.211865906"
            },
            "miss_distance": {
                "astronomical": "0.3715063856",
                "lunar": "144.5159839984",
                "kilometers": "55576563.977158672",
                "miles": "34533675.5075947936"
            },
            "orbiting_body": "Earth"
        }
    ],
    "orbital_data": {
        "orbit_id": "10",
        "orbit_determination_date": "2017-04-06 08:29:07",
        "first_observation_date": "2016-01-14",
        "last_observation_date": "2016-02-07",
        "data_arc_in_days": 24,
        "observations_used": 53,
        "orbit_uncertainty": "7",
        "minimum_orbit_intersection": ".102277",
        "jupiter_tisserand_invariant": "2.773",
        "epoch_osculation": "2459000.5",
        "eccentricity": ".6230167591362999",
        "semi_major_axis": "2.857160171360804",
        "inclination": "34.80024826539633",
        "ascending_node_longitude": "295.9398495719967",
        "orbital_period": "1764.007015722051",
        "perihelion_distance": "1.077101501066281",
        "perihelion_argument": "167.5602355088711",
        "aphelion_distance": "4.637218841655327",
        "perihelion_time": "2459159.386173707817",
        "mean_anomaly": "327.5743792258098",
        "mean_motion": ".2040808209896168",
        "equinox": "J2000",
        "orbit_class": {
            "orbit_class_type": "AMO",
            "orbit_class_description": "Near-Earth asteroid orbits similar to that of 1221 Amor",
            "orbit_class_range": "1.017 AU < q (perihelion) < 1.3 AU"
        }
    },
    "is_sentry_object": false
}